[
    {
        "Altitude(m)": 604234.625968756,
        "Argument of Periapsis(deg)": 0.0,
        "Eccentricity": 0.0,
        "Inclination(deg)": 60.0,
        "Latitude(deg)": 14.117331221043683,
        "Longitude(deg)": 96.72732958275945,
        "Mean Anomaly(deg)": 163.6364,
        "RAAN(deg)": 25.0,
        "Satellite Name": "Test1 120",
        "Satellite Number": 120,
        "Semi-Major Axis(m)": 6980739.136638005,
        "Time(s)": 0
    },
    {
        "Altitude(m)": 604223.4539446906,
        "Argument of Periapsis(deg)": 0.00010418945913296404,
        "Eccentricity": 0.0,
        "Inclination(deg)": 60.0,
        "Latitude(deg)": 13.58246754825355,
        "Longitude(deg)": 97.01423878440147,
        "Mean Anomaly(deg)": 164.25650614546183,
        "RAAN(deg)": 24.99957995086026,
        "Satellite Name": "Test1 120",
        "Satellite Number": 120,
        "Semi-Major Axis(m)": 6980739.136638005,
        "Time(s)": 10
    }
]